STARLINK-34248          
1 64928U 25157AA  25230.91668981  .00084615  00000+0  15160-2 0  9997
2 64928  53.1588 219.3193 0000748 100.2103 209.6139 15.49252512  4960
STARLINK-34290          
1 64929U 25157AB  25230.91668981  .00082813  00000+0  14841-2 0  9991
2 64929  53.1588 219.3151 0000748  93.8666 217.8723 15.49255234  4960
STARLINK-34220          
1 64930U 25157AC  25230.91668981  .00081928  00000+0  14688-2 0  9998
2 64930  53.1593 219.0892 0001279  99.5661 320.6070 15.49248898  4859
STARLINK-34715          
1 64931U 25157AD  25230.91668981  .00084502  00000+0  15138-2 0  9991
2 64931  53.1588 219.3108 0000777  98.2877 215.3617 15.49256578  4967
STARLINK-34705          
1 64932U 25158A   25230.88838524  .00019092  00000+0  49038-3 0  9990
2 64932  97.6053  93.1523 0000981  85.6175 274.5182 15.39351903  4775
STARLINK-34737          
1 64933U 25158B   25231.16668981 -.01524396  00000+0 -39597-1 0  9999
2 64933  97.6042  93.5248 0002352 100.4449 177.1894 15.42041402  4813
STARLINK-34775          
1 64934U 25158C   25230.91668981  .00080325  00000+0  20422-2 0  9996
2 64934  97.6040  93.2220 0001690 103.4667 143.4006 15.39313399  4856
STARLINK-34726          
1 64935U 25158D   25231.17619217  .00043277  00000+0  79285-3 0  9991
2 64935  97.6033  93.5408 0002451  70.6248 289.5267 15.49194780  4769
STARLINK-34529          
1 64936U 25158E   25231.20546841  .00026193  00000+0  67125-3 0  9996
2 64936  97.6032  93.5003 0001733  93.0478 267.0965 15.39354775  4820
STARLINK-34743          
1 64937U 25158F   25230.91668981  .00070987  00000+0  18106-2 0  9998
2 64937  97.6040  93.2402 0001860 107.1076 183.7542 15.39256253  4852
STARLINK-34730          
1 64938U 25158G   25231.16668981 -.01676439  00000+0 -38808-1 0  9994
2 64938  97.6175  93.5303 0001663  95.1192 211.7185 15.45748164  4760
STARLINK-34714          
1 64939U 25158H   25231.17480516  .00045379  00000+0  82993-3 0  9998
2 64939  97.6034  93.5434 0001953  94.9593 265.1881 15.49234485  4603
STARLINK-34755          
1 64940U 25158J   25231.13464870  .00121065  00000+0  16446-2 0  9997
2 64940  97.6012  93.5982 0001702 105.7970 254.3472 15.57194740  4762
STARLINK-34740          
1 64941U 25158K   25230.91668981  .00066909  00000+0  17053-2 0  9992
2 64941  97.6041  93.2099 0002014  85.5534 137.3296 15.39297912  4791
STARLINK-34742          
1 64942U 25158L   25231.16668981  .00010405  00000+0  26845-3 0  9991
2 64942  97.6040  93.4903 0002000 106.4197 106.8583 15.39365342  4816
STARLINK-34719          
1 64943U 25158M   25230.91668981  .00069262  00000+0  17652-2 0  9994
2 64943  97.6033  93.2500 0001753  83.1945 229.6975 15.39288823  4857
STARLINK-34373          
1 64944U 25158N   25231.16668981 -.01671136  00000+0 -43661-1 0  9993
2 64944  97.6173  93.5267 0001626  90.8981 208.4791 15.42179506  4762
STARLINK-34758          
1 64945U 25158P   25231.17340710 -.00290563  00000+0 -59956-2 0  9997
2 64945  97.6031  93.5444 0003352  61.6058 298.5529 15.46903084  4761
STARLINK-34753          
1 64946U 25158Q   25231.17239910  .00064251  00000+0  11725-2 0  9990
2 64946  97.6040  93.5465 0002656  64.5046 295.6479 15.49209029  4763
STARLINK-34747          
1 64947U 25158R   25231.17204973  .00065854  00000+0  12012-2 0  9992
2 64947  97.6033  93.5461 0001728  76.9116 283.2327 15.49217127  4826
STARLINK-34630          
1 64948U 25158S   25231.16668981  .00018195  00000+0  46866-3 0  9996
2 64948  97.6036  93.5149 0001774 102.8312 166.5183 15.39274822  4761
STARLINK-34689          
1 64949U 25158T   25231.19932884  .00017678  00000+0  45419-3 0  9994
2 64949  97.6033  93.5074 0001707  91.1937 268.9503 15.39359065  4828
STARLINK-34586          
1 64950U 25158U   25231.16668981 -.01676264  00000+0 -43740-1 0  9995
2 64950  97.6172  93.5319 0001839  99.9198 211.3217 15.42225664  4765
STARLINK-34738          
1 64951U 25158V   25231.17067873 -.00176278  00000+0 -33335-2 0  9999
2 64951  97.6027  93.5463 0002085 114.9311 245.2156 15.49001199  4764
STARLINK-34744          
1 64952U 25158W   25231.16668981  .00005384  00000+0  14015-3 0  9998
2 64952  97.6035  93.5024 0001825  88.1811 157.0663 15.39346854  4767
STARLINK-34701          
1 64953U 25158X   25230.91668981  .00080587  00000+0  20485-2 0  9996
2 64953  97.6037  93.2365 0001702  90.3140 188.5374 15.39317706  4806
STARLINK-34761          
1 64954U 25158Y   25231.16668981  .00020103  00000+0  51677-3 0  9991
2 64954  97.6034  93.5255 0002132  92.9462 200.4273 15.39315032  4765
STARLINK-34732          
1 64955U 25158Z   25231.16668981 -.01549206  00000+0 -35431-1 0  9993
2 64955  97.6040  93.5514 0001970 106.5007 233.4560 15.45842424  4769
HULIANWANG DIGUI-35     
1 64956U 25159A   25231.17793255  .00000106  00000+0  12442-3 0  9996
2 64956  86.4966  24.7307 0001825 104.2006 255.9351 13.58413053  3087
HULIANWANG DIGUI-36     
1 64957U 25159B   25230.73197190  .00000124  00000+0  14708-3 0  9991
2 64957  86.4996  24.8929 0001681  82.8101 277.3244 13.59150457  3030
HULIANWANG DIGUI-37     
1 64958U 25159C   25226.53866291  .00000184  00000+0  21151-3 0  9996
2 64958  86.4929  26.3830 0001327 104.2173 255.9131 13.63868240  2464
HULIANWANG DIGUI-38     
1 64959U 25159D   25224.77541754  .00000071  00000+0  67165-4 0  9996
2 64959  86.4963  27.0378 0001367 143.8221 216.3029 13.65414196  2214
HULIANWANG DIGUI-39     
1 64960U 25159E   25230.79388981  .00000126  00000+0  15162-3 0  9998
2 64960  86.4732  24.8800 0009727 150.4498 209.7206 13.58218365  3040
CZ-6A R/B               
1 64961U 25159F   25230.86219516  .00000067  00000+0  34947-4 0  9991
2 64961  86.5072  24.4760 0104262  48.0608 312.9394 13.94025426  3101
ENSHI XIDA SHANQUAN     
1 64962U 25160A   25231.20164336  .00016376  00000+0  72748-3 0  9992
2 64962  97.3979 305.5039 0011813 191.5845 168.5121 15.21549072  3198
SQX-1 R/B               
1 64963U 25160B   25231.17657425  .00047623  28673-5  27670-3 0  9990
2 64963  97.4386 306.8960 0162796 276.0960  82.1770 15.62248536  3280
STARLINK-34617          
1 65015U 25161A   25230.91668981 -.01688652  00000+0 -21601-1 0  9990
2 65015  53.1603 159.9655 0001420 103.0581 109.6770 15.61466163  4263
STARLINK-34627          
1 65016U 25161B   25230.91668981 -.01685949  00000+0 -21563-1 0  9994
2 65016  53.1604 159.9617 0001230  84.1757 130.4701 15.61467318  4377
STARLINK-34549          
1 65017U 25161C   25231.16668981 -.01675315  00000+0 -22204-1 0  9992
2 65017  53.1602 158.7432 0001227  70.5711 111.7037 15.60532728  4273
STARLINK-34623          
1 65018U 25161D   25230.91668981 -.01557869  00000+0 -20201-1 0  9993
2 65018  53.1603 159.9533 0001201  91.4669 127.0914 15.61369612  4260
STARLINK-34232          
1 65019U 25161E   25230.91668981 -.01691342  00000+0 -21639-1 0  9995
2 65019  53.1602 159.9495 0001215  81.5755 138.8236 15.61468386  4375
STARLINK-34772          
1 65020U 25161F   25230.91668981 -.01689076  00000+0 -21608-1 0  9994
2 65020  53.1604 159.9455 0001283 107.3392 114.9794 15.61466279  4377
STARLINK-34778          
1 65021U 25161G   25230.91668981 -.01695589  00000+0 -21696-1 0  9998
2 65021  53.1603 159.9412 0001373 108.4648 115.7682 15.61471127  4212
STARLINK-34789          
1 65022U 25161H   25230.91668981 -.01695725  00000+0 -21696-1 0  9991
2 65022  53.1605 159.9368 0001483  87.8983 138.2487 15.61472395  4210
STARLINK-34858          
1 65023U 25161J   25230.91668981 -.01691283  00000+0 -21639-1 0  9994
2 65023  53.1606 159.9332 0001254 104.0405 124.0292 15.61467063  4213
STARLINK-34773          
1 65024U 25161K   25230.91668981 -.01693873  00000+0 -21674-1 0  9991
2 65024  53.1608 159.9291 0001267  85.8116 144.1728 15.61469185  4213
STARLINK-34727          
1 65025U 25161L   25231.16668981 -.01673560  00000+0 -22180-1 0  9994
2 65025  53.1604 158.7100 0001272  62.6914 134.9191 15.60530145  4283
STARLINK-34804          
1 65026U 25161M   25231.16668981 -.01673744  00000+0 -22182-1 0  9991
2 65026  53.1605 158.7065 0001365  69.8964 129.6325 15.60530154  4282
STARLINK-34655          
1 65027U 25161N   25230.91668981 -.01693598  00000+0 -21667-1 0  9990
2 65027  53.1604 159.9161 0001354 105.3184 130.4140 15.61472043  4266
STARLINK-34807          
1 65028U 25161P   25230.91668981 -.01687052  00000+0 -21581-1 0  9994
2 65028  53.1606 159.9133 0001260 106.4747 131.1805 15.61464318  4263
STARLINK-34731          
1 65029U 25161Q   25230.91668981 -.01692344  00000+0 -21653-1 0  9995
2 65029  53.1605 159.9092 0001239 107.2181 132.3513 15.61468518  4269
STARLINK-34614          
1 65030U 25161R   25230.91668981 -.01692115  00000+0 -21648-1 0  9997
2 65030  53.1606 159.9042 0001225  83.8738 157.6082 15.61470690  4264
STARLINK-34677          
1 65031U 25161S   25230.91668981 -.01687451  00000+0 -21583-1 0  9993
2 65031  53.1601 159.8999 0001403  84.8961 158.5050 15.61467392  4267
STARLINK-34656          
1 65032U 25161T   25230.91668981 -.01690949  00000+0 -21632-1 0  9995
2 65032  53.1604 159.8957 0001321  87.4872 157.8311 15.61469101  4266
STARLINK-34671          
1 65033U 25161U   25230.91668981 -.01693437  00000+0 -21666-1 0  9998
2 65033  53.1608 159.8914 0001366 109.6381 137.5969 15.61470410  4264
STARLINK-34610          
1 65034U 25161V   25230.91668981 -.01689891  00000+0 -21618-1 0  9995
2 65034  53.1604 159.8882 0001199  88.7941 160.3563 15.61468930  4165
STARLINK-34286          
1 65035U 25161W   25230.91668981 -.01687186  00000+0 -21582-1 0  9991
2 65035  53.1603 159.8850 0001276  88.0184 163.0529 15.61465244  4378
STARLINK-34770          
1 65036U 25161X   25230.91668981 -.01690944  00000+0 -21632-1 0  9994
2 65036  53.1603 159.8797 0001377 109.6548 143.3325 15.61468519  4277
STARLINK-34776          
1 65037U 25161Y   25230.91668981 -.01687190  00000+0 -21582-1 0  9998
2 65037  53.1602 159.8764 0001304 110.7894 144.1162 15.61465073  4379
